IXPE                    
1 49954U 21121A   24212.58334491  .00005444  00000+0  37296-3 0  9992
2 49954   0.2307  71.0331 0008842 206.9830 217.6174 14.98786017  5903
